SZ-21 MODULE            
1 66515U 25246C   25335.99023124  .00029734  00000+0  33718-3 0  9999
2 66515  41.4766  81.5812 0005672 196.2945 163.7713 15.61701927  2766
SHENZHOU-22             
1 66645U 25272A   25335.63098376  .00019534  00000+0  25188-3 0  9993
2 66645  41.4671  84.1132 0010396 308.0304  51.9595 15.58480820262306
CZ-2F R/B               
1 66646U 25272B   25330.47076975  .00449059  75676-5  29319-3 0  9998
2 66646  41.4431 114.9009 0121079 133.7676 227.3272 16.01945612   217
SOYUZ-MS 28             
1 66664U 25275A   25335.89873625  .00009722  00000+0  18290-3 0  9997
2 66664  51.6307 196.1486 0003628 192.4733 167.6166 15.49234272   760
